STARLINK-1012           
1 44718U 19074F   26068.62155426 -.00002011  00000+0 -55774-4 0  9995
2 44718  53.1621 179.1275 0002340  35.4860 324.6296 15.30183402348858
NUSHSAT1                
1 63211U 25052B   26068.64700493  .00023034  00000+0  74857-3 0  9997
2 63211  97.4095 325.7239 0005501  84.7512 275.4357 15.31903202 54882
