[{"OBJECT_NAME":"STARLINK-1012","OBJECT_ID":"2019-074F","EPOCH":"2026-03-09T14:55:02.288064","MEAN_MOTION":15.30183402,"ECCENTRICITY":0.000234,"INCLINATION":53.1621,"RA_OF_ASC_NODE":179.1275,"ARG_OF_PERICENTER":35.486,"MEAN_ANOMALY":324.6296,"EPHEMERIS_TYPE":0,"CLASSIFICATION_TYPE":"U","NORAD_CAT_ID":44718,"ELEMENT_SET_NO":999,"REV_AT_EPOCH":34885,"BSTAR":-5.5774e-5,"MEAN_MOTION_DOT":-2.011e-5,"MEAN_MOTION_DDOT":0},{"OBJECT_NAME":"NUSHSAT1","OBJECT_ID":"2025-052B","EPOCH":"2026-03-09T15:31:41.225952","MEAN_MOTION":15.31903202,"ECCENTRICITY":0.0005501,"INCLINATION":97.4095,"RA_OF_ASC_NODE":325.7239,"ARG_OF_PERICENTER":84.7512,"MEAN_ANOMALY":275.4357,"EPHEMERIS_TYPE":0,"CLASSIFICATION_TYPE":"U","NORAD_CAT_ID":63211,"ELEMENT_SET_NO":999,"REV_AT_EPOCH":5488,"BSTAR":0.00074857,"MEAN_MOTION_DOT":0.00023034,"MEAN_MOTION_DDOT":0}]
